STARLINK-30494          
1 57970U 23151G   26068.36049035 -.00001272  00000+0 -35691-4 0  9993
2 57970  43.0027 192.4566 0001155 241.5536 118.5200 15.28417441137406
STARLINK-30896          
1 58353U 23177C   26068.42455781  .00000295  00000+0  20241-4 0  9990
2 58353  42.9994 210.2995 0000928 271.5570  88.5175 15.27575550129791
